#aV2008 11  6  0  0   .00000000      96 DD+AD WGS84 FIT  NGA
## 1504 345600.00000000   900.00000000 54776  .0000000000000
+   31     2  3  4  5  6  7  8  9 10 11 12 13 14 15 16 17 18
+         19 20 21 22 23 24 25 26 27 28 29 30 31 32  0  0  0
+          0  0  0  0  0  0  0  0  0  0  0  0  0  0  0  0  0
+          0  0  0  0  0  0  0  0  0  0  0  0  0  0  0  0  0
+          0  0  0  0  0  0  0  0  0  0  0  0  0  0  0  0  0
++         0  0  0  0  0  0  0  0  0  0  0  0  0  0  0  0  0
++         0  0  0  0  0  0  0  0  0  0  0  0  0  0  0  0  0
++         0  0  0  0  0  0  0  0  0  0  0  0  0  0  0  0  0
++         0  0  0  0  0  0  0  0  0  0  0  0  0  0  0  0  0
++         0  0  0  0  0  0  0  0  0  0  0  0  0  0  0  0  0
%c cc cc ccc ccc cccc cccc cccc cccc ccccc ccccc ccccc ccccc
%c cc cc ccc ccc cccc cccc cccc cccc ccccc ccccc ccccc ccccc
%f  0.0000000  0.000000000  0.00000000000  0.000000000000000
%f  0.0000000  0.000000000  0.00000000000  0.000000000000000
%i    0    0    0    0      0      0      0      0         0
%i    0    0    0    0      0      0      0      0         0
/*      NGA, ST. LOUIS,MO.                                  
/*   EPHEMERIS COMPUTED FROM  3 DAYS OF DATA                
/* CCCCCCCCCCCCCCCCCCCCCCCCCCCCCCCCCCCCCCCCCCCCCCCCCCCCCCCCC
/* CCCCCCCCCCCCCCCCCCCCCCCCCCCCCCCCCCCCCCCCCCCCCCCCCCCCCCCCC
*  2008 11  6  6  0   .00000000                                                 
P  2  13948.768880  12012.112766 -19403.091412    175.080584                    
V  2  -1547.319623  24287.903941  13642.813624      -.025721                    
P  3 -24602.474814 -10387.262400   1338.133712    307.187370                    
V  3   -310.286005  -4132.475829 -30673.054397       .051288                    
P  4   6835.182404  23325.444513 -10366.346085   -223.440268                    
V  4  -3645.694227  13055.484460  27642.740185      -.120303                    
P  5  21221.282963 -15800.108103  -1647.587779   -368.752581                    
V  5   3383.120930   1869.805323  31364.215909      -.313547                    
P  6 -22629.346266 -13801.784072  -1592.866235    148.361157                    
V  6   3742.394746  -2134.879186 -31042.460309      -.062904                    
P  7  -7515.156613  23348.085513 -10078.538300     22.969949                    
V  7  -2172.168284 -12845.719731 -28306.016613       .003153                    
P  8   -248.849220  26135.599419   2735.818072   -176.949406                    
V  8  -2700.751340   3397.954431 -32389.921165      -.014051                    
P  9  13532.686756  -9561.800761  20090.528913     23.491309                    
V  9   1400.700150  26942.035360  11630.899006       .019075                    
P 10  20738.994016   2460.082838 -16742.555030     -6.904105                    
V 10 -17824.323890  10954.261865 -20314.404019      -.004718                    
P 11 -13710.869259  11690.939419  19244.601130     16.258282                    
V 11  -6380.057306 -24482.938960  10582.973688      -.008427                    
P 12  24021.672303 -10890.449617   2741.929751   -342.330395                    
V 12  -1678.477252   4036.768429  31654.423083       .022610                    
P 13  -8031.200414  12080.624928 -22361.518177    276.135841                    
V 13 -23159.678200 -15773.668225   -201.369570       .009909                    
P 14 -12216.302654 -19075.754538  14080.730190   -198.126902                    
V 14  15461.168398   8487.185443  25007.590904       .047467                    
P 15  23405.334745   4066.259253  11939.522702   -206.269094                    
V 15  11772.950842   9775.992881 -26449.801737      -.062563                    
P 16 -16116.786937  -7082.751459 -19894.443525     97.052229                    
V 16  21973.706284 -12594.508375 -13071.784111      -.023341                    
P 17  10645.712013  19198.609491  15117.946898     40.163939                    
V 17 -17164.745011  -8496.698483  22766.437888       .004562                    
P 18  11834.580701 -18262.352482  15183.084544   -115.853326                    
V 18  18192.992479  -6349.566766 -22484.972524       .038856                    
P 19 -22652.782290  -4548.940588  13358.194574     35.609698                    
V 19 -12435.502561 -11462.668421 -24905.391681      -.000772                    
P 20 -22749.397911  13653.707378   -704.243087     99.853611                    
V 20  -2333.752646  -2532.225312  31405.794981      -.010475                    
P 21   4721.911599 -25297.060435  -4864.034675     43.716557                    
V 21   3780.219920   6754.564939 -30745.249472      -.015621                    
P 22  -1084.748398 -16460.841270  20969.820523    209.692256                    
V 22  23937.776188 -10995.207960  -7510.376387      -.003745                    
P 23 -16966.212429   5483.666230 -19822.759198    379.127435                    
V 23 -20768.537708 -13852.429972  13714.644597       .011590                    
P 24  12940.328253 -16364.237755 -16445.134103    138.872685                    
V 24    328.995090  21161.482569 -20338.264180       .029133                    
P 25  -9479.135102  19005.445854 -15703.351440       .847415                    
V 25  -3277.043827 -20326.599904 -21951.353371       .314184                    
P 26  23542.046801  10480.126212   6985.242129     11.918166                    
V 26   7002.850456   6405.162040 -30481.168260       .045689                    
P 27  -3567.158574  25236.150250  -6581.241686    230.672792                    
V 27  -2910.306016  -9175.696602 -30577.182990       .028412                    
P 28   -606.855479  16659.381242  20999.716325    -23.441722                    
V 28 -23415.531985  10941.917243  -9870.329366      -.001256                    
P 29  10487.241374 -11224.775745 -21562.060488    -31.330943                    
V 29  23102.917330  15159.960614   3363.817685       .018243                    
P 30  16383.423592 -18386.168139 -10197.637899    106.217765                    
V 30  12120.972752  -4060.236016  27862.003892       .022383                    
P 31  -8199.730550 -21718.633998 -12594.536292    -36.817149                    
V 31   2514.470523 -16306.277847  26157.188045      -.021991                    
P 32 -25001.568785   6160.107411   6476.488585    314.824998                    
V 32   5993.783057  -5510.790946  30592.784846      -.010525                    
EOF
